[{"OBJECT_NAME":"STARLINK-34364","OBJECT_ID":"2025-133Z","EPOCH":"2025-11-18T03:49:03.157248","MEAN_MOTION":15.30190039,"ECCENTRICITY":0.0001161,"INCLINATION":53.1595,"RA_OF_ASC_NODE":272.6143,"ARG_OF_PERICENTER":100.3415,"MEAN_ANOMALY":259.7716,"EPHEMERIS_TYPE":0,"CLASSIFICATION_TYPE":"U","NORAD_CAT_ID":64495,"ELEMENT_SET_NO":999,"REV_AT_EPOCH":2414,"BSTAR":0.0017387,"MEAN_MOTION_DOT":0.00051479,"MEAN_MOTION_DDOT":0},{"OBJECT_NAME":"STARLINK-34268","OBJECT_ID":"2025-133AA","EPOCH":"2025-11-18T04:00:03.000096","MEAN_MOTION":15.30183072,"ECCENTRICITY":0.0001614,"INCLINATION":53.1599,"RA_OF_ASC_NODE":274.7248,"ARG_OF_PERICENTER":91.6443,"MEAN_ANOMALY":313.4571,"EPHEMERIS_TYPE":0,"CLASSIFICATION_TYPE":"U","NORAD_CAT_ID":64496,"ELEMENT_SET_NO":999,"REV_AT_EPOCH":594,"BSTAR":0.00030607,"MEAN_MOTION_DOT":8.712e-5,"MEAN_MOTION_DDOT":0},{"OBJECT_NAME":"STARLINK-34363","OBJECT_ID":"2025-133AB","EPOCH":"2025-11-18T04:00:03.000096","MEAN_MOTION":15.30182199,"ECCENTRICITY":0.0001696,"INCLINATION":53.1603,"RA_OF_ASC_NODE":274.6665,"ARG_OF_PERICENTER":102.9595,"MEAN_ANOMALY":331.2254,"EPHEMERIS_TYPE":0,"CLASSIFICATION_TYPE":"U","NORAD_CAT_ID":64497,"ELEMENT_SET_NO":999,"REV_AT_EPOCH":594,"BSTAR":0.0003658,"MEAN_MOTION_DOT":0.00010484,"MEAN_MOTION_DDOT":0},{"OBJECT_NAME":"STARLINK-34427","OBJECT_ID":"2025-133AC","EPOCH":"2025-11-18T04:00:03.000096","MEAN_MOTION":15.301632,"ECCENTRICITY":0.0001278,"INCLINATION":53.1604,"RA_OF_ASC_NODE":274.6322,"ARG_OF_PERICENTER":100.5012,"MEAN_ANOMALY":351.1576,"EPHEMERIS_TYPE":0,"CLASSIFICATION_TYPE":"U","NORAD_CAT_ID":64498,"ELEMENT_SET_NO":999,"REV_AT_EPOCH":594,"BSTAR":0.00085498,"MEAN_MOTION_DOT":0.00025019,"MEAN_MOTION_DDOT":0},{"OBJECT_NAME":"STARLINK-34280","OBJECT_ID":"2025-137A","EPOCH":"2025-11-17T21:02:12.648192","MEAN_MOTION":15.39629143,"ECCENTRICITY":6.23e-5,"INCLINATION":53.1596,"RA_OF_ASC_NODE":138.3071,"ARG_OF_PERICENTER":129.5084,"MEAN_ANOMALY":230.5976,"EPHEMERIS_TYPE":0,"CLASSIFICATION_TYPE":"U","NORAD_CAT_ID":64594,"ELEMENT_SET_NO":999,"REV_AT_EPOCH":2356,"BSTAR":0.0011512,"MEAN_MOTION_DOT":0.00045939,"MEAN_MOTION_DDOT":0},{"OBJECT_NAME":"STARLINK-34517","OBJECT_ID":"2025-137B","EPOCH":"2025-11-17T12:28:00.736608","MEAN_MOTION":15.39675167,"ECCENTRICITY":0.00035215,"INCLINATION":53.1528,"RA_OF_ASC_NODE":139.6329,"ARG_OF_PERICENTER":112.2889,"MEAN_ANOMALY":247.8489,"EPHEMERIS_TYPE":0,"CLASSIFICATION_TYPE":"U","NORAD_CAT_ID":64595,"ELEMENT_SET_NO":999,"REV_AT_EPOCH":2351,"BSTAR":0.0013581755,"MEAN_MOTION_DOT":0.00054421,"MEAN_MOTION_DDOT":0},{"OBJECT_NAME":"STARLINK-34510","OBJECT_ID":"2025-137C","EPOCH":"2025-11-17T12:54:45.690912","MEAN_MOTION":15.39643073,"ECCENTRICITY":9.564e-5,"INCLINATION":53.155,"RA_OF_ASC_NODE":139.7491,"ARG_OF_PERICENTER":90.3947,"MEAN_ANOMALY":269.7167,"EPHEMERIS_TYPE":0,"CLASSIFICATION_TYPE":"U","NORAD_CAT_ID":64596,"ELEMENT_SET_NO":999,"REV_AT_EPOCH":2351,"BSTAR":0.0015425568,"MEAN_MOTION_DOT":0.00061851,"MEAN_MOTION_DDOT":0},{"OBJECT_NAME":"STARLINK-34486","OBJECT_ID":"2025-137D","EPOCH":"2025-11-17T21:28:49.366848","MEAN_MOTION":15.39623186,"ECCENTRICITY":0.0001015,"INCLINATION":53.1574,"RA_OF_ASC_NODE":137.7079,"ARG_OF_PERICENTER":76.7196,"MEAN_ANOMALY":283.3922,"EPHEMERIS_TYPE":0,"CLASSIFICATION_TYPE":"U","NORAD_CAT_ID":64597,"ELEMENT_SET_NO":999,"REV_AT_EPOCH":2357,"BSTAR":0.0011753,"MEAN_MOTION_DOT":0.00046906,"MEAN_MOTION_DDOT":0},{"OBJECT_NAME":"STARLINK-34463","OBJECT_ID":"2025-137E","EPOCH":"2025-11-17T21:15:26.970912","MEAN_MOTION":15.39627147,"ECCENTRICITY":8.4e-5,"INCLINATION":53.1621,"RA_OF_ASC_NODE":137.6508,"ARG_OF_PERICENTER":97.4095,"MEAN_ANOMALY":262.7005,"EPHEMERIS_TYPE":0,"CLASSIFICATION_TYPE":"U","NORAD_CAT_ID":64598,"ELEMENT_SET_NO":999,"REV_AT_EPOCH":2357,"BSTAR":0.0011526,"MEAN_MOTION_DOT":0.00045993,"MEAN_MOTION_DDOT":0},{"OBJECT_NAME":"STARLINK-34294","OBJECT_ID":"2025-137F","EPOCH":"2025-11-17T22:02:15.292320","MEAN_MOTION":15.39620866,"ECCENTRICITY":8.02e-5,"INCLINATION":53.1597,"RA_OF_ASC_NODE":137.8529,"ARG_OF_PERICENTER":79.863,"MEAN_ANOMALY":280.2465,"EPHEMERIS_TYPE":0,"CLASSIFICATION_TYPE":"U","NORAD_CAT_ID":64599,"ELEMENT_SET_NO":999,"REV_AT_EPOCH":2357,"BSTAR":0.0012117,"MEAN_MOTION_DOT":0.00048378,"MEAN_MOTION_DDOT":0},{"OBJECT_NAME":"STARLINK-34504","OBJECT_ID":"2025-137G","EPOCH":"2025-11-17T20:55:31.061856","MEAN_MOTION":15.3964431,"ECCENTRICITY":5.67e-5,"INCLINATION":53.1622,"RA_OF_ASC_NODE":138.2763,"ARG_OF_PERICENTER":235.2127,"MEAN_ANOMALY":124.8825,"EPHEMERIS_TYPE":0,"CLASSIFICATION_TYPE":"U","NORAD_CAT_ID":64600,"ELEMENT_SET_NO":999,"REV_AT_EPOCH":2356,"BSTAR":0.0012299,"MEAN_MOTION_DOT":0.00049154,"MEAN_MOTION_DDOT":0},{"OBJECT_NAME":"STARLINK-34508","OBJECT_ID":"2025-137H","EPOCH":"2025-11-17T19:01:59.483712","MEAN_MOTION":15.39613038,"ECCENTRICITY":0.0002317,"INCLINATION":53.1557,"RA_OF_ASC_NODE":138.4974,"ARG_OF_PERICENTER":101.5268,"MEAN_ANOMALY":258.5997,"EPHEMERIS_TYPE":0,"CLASSIFICATION_TYPE":"U","NORAD_CAT_ID":64601,"ELEMENT_SET_NO":999,"REV_AT_EPOCH":2355,"BSTAR":0.0017685,"MEAN_MOTION_DOT":0.00070985,"MEAN_MOTION_DDOT":0},{"OBJECT_NAME":"STARLINK-34435","OBJECT_ID":"2025-137J","EPOCH":"2025-11-17T21:42:10.647360","MEAN_MOTION":15.3967028,"ECCENTRICITY":8.24e-5,"INCLINATION":53.1581,"RA_OF_ASC_NODE":137.7658,"ARG_OF_PERICENTER":78.401,"MEAN_ANOMALY":281.7087,"EPHEMERIS_TYPE":0,"CLASSIFICATION_TYPE":"U","NORAD_CAT_ID":64602,"ELEMENT_SET_NO":999,"REV_AT_EPOCH":2357,"BSTAR":0.0014986,"MEAN_MOTION_DOT":0.00060118,"MEAN_MOTION_DDOT":0},{"OBJECT_NAME":"STARLINK-34475","OBJECT_ID":"2025-137K","EPOCH":"2025-11-17T21:35:30.331104","MEAN_MOTION":15.3963431,"ECCENTRICITY":3.8e-5,"INCLINATION":53.1589,"RA_OF_ASC_NODE":137.736,"ARG_OF_PERICENTER":357.7397,"MEAN_ANOMALY":2.3606,"EPHEMERIS_TYPE":0,"CLASSIFICATION_TYPE":"U","NORAD_CAT_ID":64603,"ELEMENT_SET_NO":999,"REV_AT_EPOCH":2357,"BSTAR":0.0015621,"MEAN_MOTION_DOT":0.00062628,"MEAN_MOTION_DDOT":0},{"OBJECT_NAME":"STARLINK-34488","OBJECT_ID":"2025-137L","EPOCH":"2025-11-17T13:01:26.605056","MEAN_MOTION":15.39650373,"ECCENTRICITY":5.482e-5,"INCLINATION":53.1578,"RA_OF_ASC_NODE":139.7775,"ARG_OF_PERICENTER":102.2646,"MEAN_ANOMALY":257.842,"EPHEMERIS_TYPE":0,"CLASSIFICATION_TYPE":"U","NORAD_CAT_ID":64604,"ELEMENT_SET_NO":999,"REV_AT_EPOCH":2351,"BSTAR":0.0017419228,"MEAN_MOTION_DOT":0.00069988,"MEAN_MOTION_DDOT":0},{"OBJECT_NAME":"STARLINK-34516","OBJECT_ID":"2025-137M","EPOCH":"2025-11-17T21:55:34.215744","MEAN_MOTION":15.39628875,"ECCENTRICITY":8.96e-5,"INCLINATION":53.1577,"RA_OF_ASC_NODE":137.8235,"ARG_OF_PERICENTER":71.4731,"MEAN_ANOMALY":288.6371,"EPHEMERIS_TYPE":0,"CLASSIFICATION_TYPE":"U","NORAD_CAT_ID":64605,"ELEMENT_SET_NO":999,"REV_AT_EPOCH":2367,"BSTAR":0.0011872,"MEAN_MOTION_DOT":0.00047395,"MEAN_MOTION_DDOT":0}]
