STARLINK-34364          
1 64495U 25133Z   25322.15906432  .00051479  00000+0  17387-2 0  9999
2 64495  53.1595 272.6143 0001161 100.3415 259.7716 15.30190039 24145
STARLINK-34268          
1 64496U 25133AA  25322.16670139  .00008712  00000+0  30607-3 0  9996
2 64496  53.1599 274.7248 0001614  91.6443 313.4571 15.30183072  5948
STARLINK-34363          
1 64497U 25133AB  25322.16670139  .00010484  00000+0  36580-3 0  9992
2 64497  53.1603 274.6665 0001696 102.9595 331.2254 15.30182199  5946
STARLINK-34427          
1 64498U 25133AC  25322.16670139  .00025019  00000+0  85498-3 0  9995
2 64498  53.1604 274.6322 0001278 100.5012 351.1576 15.30163200  5942
STARLINK-34280          
1 64594U 25137A   25321.87653528  .00045939  00000+0  11512-2 0  9994
2 64594  53.1596 138.3071 0000623 129.5084 230.5976 15.39629143 23563
STARLINK-34517          
1 64595U 25137B   25321.51945297  .00054421  00000+0  13582-2 0  9998
2 64595  53.1528 139.6329 0003521 112.2889 247.8489 15.39675167 23513
STARLINK-34510          
1 64596U 25137C   25321.53802883  .00061851  00000+0  15426-2 0  9998
2 64596  53.1550 139.7491 0000956  90.3947 269.7167 15.39643073 23517
STARLINK-34486          
1 64597U 25137D   25321.89501582  .00046906  00000+0  11753-2 0  9993
2 64597  53.1574 137.7079 0001015  76.7196 283.3922 15.39623186 23575
STARLINK-34463          
1 64598U 25137E   25321.88572883  .00045993  00000+0  11526-2 0  9998
2 64598  53.1621 137.6508 0000840  97.4095 262.7005 15.39627147 23572
STARLINK-34294          
1 64599U 25137F   25321.91823255  .00048378  00000+0  12117-2 0  9992
2 64599  53.1597 137.8529 0000802  79.8630 280.2465 15.39620866 23573
STARLINK-34504          
1 64600U 25137G   25321.87188729  .00049154  00000+0  12299-2 0  9994
2 64600  53.1622 138.2763 0000567 235.2127 124.8825 15.39644310 23569
STARLINK-34508          
1 64601U 25137H   25321.79304958  .00070985  00000+0  17685-2 0  9990
2 64601  53.1557 138.4974 0002317 101.5268 258.5997 15.39613038 23556
STARLINK-34435          
1 64602U 25137J   25321.90428990  .00060118  00000+0  14986-2 0  9995
2 64602  53.1581 137.7658 0000824  78.4010 281.7087 15.39670280 23575
STARLINK-34475          
1 64603U 25137K   25321.89965661  .00062628  00000+0  15621-2 0  9990
2 64603  53.1589 137.7360 0000380 357.7397   2.3606 15.39634310 23570
STARLINK-34488          
1 64604U 25137L   25321.54266904  .00069988  00000+0  17419-2 0  9990
2 64604  53.1578 139.7775 0000548 102.2646 257.8420 15.39650373 23519
STARLINK-34516          
1 64605U 25137M   25321.91359046  .00047395  00000+0  11872-2 0  9997
2 64605  53.1577 137.8235 0000896  71.4731 288.6371 15.39628875 23673
